NORAD_CAT_ID,OBJECT_NAME,OBJECT_TYPE,EPOCH,MEAN_MOTION,ECCENTRICITY,INCLINATION,RA_OF_ASC_NODE,ARG_OF_PERICENTER,MEAN_ANOMALY,BSTAR,MEAN_MOTION_DOT,MEAN_MOTION_DDOT,TLE_LINE0,TLE_LINE1,TLE_LINE2,SEMIMAJOR_AXIS,PERIOD,APOGEE,PERIGEE,DECAYED
53273.0,STARLINK-4051,PAYLOAD,2022-11-28 12:56:08,15.08855465,0.0001939,53.2181,158.3463,54.7032,305.4141,6.103699999999999e-05,6.84e-06,0.0,0 STARLINK-4051,1 53273U 22086AH  22332.53899101  .00000684  00000-0  61037-4 0  9995,2 53273  53.2181 158.3463 0001939  54.7032 305.4141 15.08855465 20293,6917.833000000001,95.437,541.039,538.357,0.0
53273.0,STARLINK-4051,PAYLOAD,2022-11-28 22:28:28,15.08845387,0.0001851,53.218,156.562,53.1007,307.0154,-3.0161e-05,-7.68e-06,0.0,0 STARLINK-4051,1 53273U 22086AH  22332.93643635 -.00000768  00000-0 -30161-4 0  9997,2 53273  53.2180 156.5620 0001851  53.1007 307.0154 15.08845387 20356,6917.864000000001,95.437,541.009,538.448,0.0
53273.0,STARLINK-4051,PAYLOAD,2022-11-29 04:50:00,15.08844181,0.000185,53.2178,155.3723,52.5055,307.6105,6.5723000000000014e-06,-1.84e-06,0.0,0 STARLINK-4051,1 53273U 22086AH  22333.20139545 -.00000184  00000-0  65723-5 0  9992,2 53273  53.2178 155.3723 0001850  52.5055 307.6105 15.08844181 20565,6917.868,95.437,541.012,538.453,0.0
53273.0,STARLINK-4051,PAYLOAD,2022-11-29 15:57:42,15.0884171,0.0001817,53.2182,153.2908,54.9329,305.1833,6.4679e-05,7.41e-06,0.0,0 STARLINK-4051,1 53273U 22086AH  22333.66507487  .00000741  00000-0  64679-4 0  9992,2 53273  53.2182 153.2908 0001817  54.9329 305.1833 15.08841710 20639,6917.875,95.437,540.997,538.4830000000002,0.0
53273.0,STARLINK-4051,PAYLOAD,2022-11-30 04:40:48,15.0882899,0.0001819,53.2187,150.9115,51.7017,308.4139,-7.6047e-05,-1.498e-05,0.0,0 STARLINK-4051,1 53273U 22086AH  22334.19500837 -.00001498  00000-0 -76047-4 0  9997,2 53273  53.2187 150.9115 0001819  51.7017 308.4139 15.08828990 20549,6917.9140000000025,95.438,541.0369999999998,538.521,0.0
53273.0,STARLINK-4051,PAYLOAD,2022-11-30 11:02:21,15.08830941,0.0001859,53.2188,149.7216,55.1423,304.9744,-9.3148e-05,-1.77e-05,0.0,0 STARLINK-4051,1 53273U 22086AH  22334.45996893 -.00001770  00000-0 -93148-4 0  9991,2 53273  53.2188 149.7216 0001859  55.1423 304.9744 15.08830941 20756,6917.908,95.438,541.059,538.487,0.0
53273.0,STARLINK-4051,PAYLOAD,2022-11-30 18:59:17,15.08836245,0.0001811,53.2188,148.2349,48.6793,311.4354,-0.0001753,-3.077e-05,0.0,0 STARLINK-4051,1 53273U 22086AH  22334.79116955 -.00003077  00000-0 -17530-3 0  9993,2 53273  53.2188 148.2349 0001811  48.6793 311.4354 15.08836245 20801,6917.892,95.438,541.01,538.504,0.0
53273.0,STARLINK-4051,PAYLOAD,2022-12-01 09:17:45,15.08830391,0.0001821,53.2184,145.5594,49.6414,310.4736,-5.2821000000000015e-06,-3.72e-06,0.0,0 STARLINK-4051,1 53273U 22086AH  22335.38733163 -.00000372  00000-0 -52821-5 0  9994,2 53273  53.2184 145.5594 0001821  49.6414 310.4736 15.08830391 20899,6917.91,95.438,541.035,538.515,0.0
53273.0,STARLINK-4051,PAYLOAD,2022-12-01 14:03:54,15.0883134,0.0001827,53.2185,144.6673,50.6749,309.4405,-1.3317e-05,-5e-06,0.0,0 STARLINK-4051,1 53273U 22086AH  22335.58605248 -.00000500  00000-0 -13317-4 0  9997,2 53273  53.2185 144.6673 0001827  50.6749 309.4405 15.08831340 20758,6917.906999999997,95.438,541.036,538.508,0.0
53273.0,STARLINK-4051,PAYLOAD,2022-12-01 20:25:27,15.0883492,0.0001844,53.2185,143.4781,53.3496,306.7666,1.797e-05,-2e-08,0.0,0 STARLINK-4051,1 53273U 22086AH  22335.85101090 -.00000002  00000-0  17970-4 0  9998,2 53273  53.2185 143.4781 0001844  53.3496 306.7666 15.08834920 20962,6917.896,95.438,541.0369999999998,538.485,0.0
53273.0,STARLINK-4051,PAYLOAD,2022-12-02 12:19:18,15.08833475,0.000182,53.2188,140.5048,54.0067,306.1093,0.0001279,1.748e-05,0.0,0 STARLINK-4051,1 53273U 22086AH  22336.51341333  .00001748  00000-0  12790-3 0  9999,2 53273  53.2188 140.5048 0001820  54.0067 306.1093 15.08833475 21069,6917.9,95.438,541.024,538.506,0.0
53273.0,STARLINK-4051,PAYLOAD,2022-12-02 13:54:42,15.08834642,0.000183,53.2187,140.2072,54.0475,306.0687,0.00013863,1.919e-05,0.0,0 STARLINK-4051,1 53273U 22086AH  22336.57965278  .00001919  00000-0  13863-3 0  9997,2 53273  53.2187 140.2072 0001830  54.0475 306.0687 15.08834642 21072,6917.897,95.438,541.028,538.496,0.0
53273.0,STARLINK-4051,PAYLOAD,2022-12-03 04:13:10,15.0884071,0.0001859,53.2188,137.5311,54.383,305.7335,0.00015145,2.123e-05,0.0,0 STARLINK-4051,1 53273U 22086AH  22337.17581041  .00002123  00000-0  15145-3 0  9999,2 53273  53.2188 137.5311 0001859  54.3830 305.7335 15.08840710 20996,6917.878000000002,95.438,541.029,538.457,0.0
53273.0,STARLINK-4051,PAYLOAD,2022-12-03 16:56:14,15.08846381,0.0001878,53.2188,135.15200000000002,55.1134,305.0034,0.00016586,2.353e-05,0.0,0 STARLINK-4051,1 53273U 22086AH  22337.70572582  .00002353  00000-0  16586-3 0  9993,2 53273  53.2188 135.1520 0001878  55.1134 305.0034 15.08846381 21247,6917.861,95.437,541.025,538.427,0.0
53273.0,STARLINK-4051,PAYLOAD,2022-12-03 20:07:00,15.0884929,0.0001891,53.2188,134.5572,55.3052,304.8118,0.00016612,2.357e-05,0.0,0 STARLINK-4051,1 53273U 22086AH  22337.83820359  .00002357  00000-0  16612-3 0  9999,2 53273  53.2188 134.5572 0001891  55.3052 304.8118 15.08849290 21098,6917.852,95.437,541.025,538.409,0.0
53273.0,STARLINK-4051,PAYLOAD,2022-12-04 04:03:57,15.08838835,0.0001996,53.2187,133.0702,57.0293,303.0891,5.8928e-05,6.5e-06,0.0,0 STARLINK-4051,1 53273U 22086AH  22338.16941358  .00000650  00000-0  58928-4 0  9990,2 53273  53.2187 133.0702 0001996  57.0293 303.0891 15.08838835 21146,6917.884,95.438,541.13,538.368,0.0
53273.0,STARLINK-4051,PAYLOAD,2022-12-04 16:47:02,15.08843345,0.0001828,53.2188,130.6915,55.0997,305.0166,7.2901e-05,8.72e-06,0.0,0 STARLINK-4051,1 53273U 22086AH  22338.69932956  .00000872  00000-0  72901-4 0  9995,2 53273  53.2188 130.6915 0001828  55.0997 305.0166 15.08843345 21395,6917.87,95.437,541.0,538.471,0.0
53273.0,STARLINK-4051,PAYLOAD,2022-12-05 03:54:43,15.08854231,0.0001859,53.2192,128.6105,54.2993,305.8172,0.00011232,1.501e-05,0.0,0 STARLINK-4051,1 53273U 22086AH  22339.16300081  .00001501  00000-0  11232-3 0  9995,2 53273  53.2192 128.6105 0001859  54.2993 305.8172 15.08854231 21299,6917.837,95.437,540.988,538.4159999999998,0.0
53273.0,STARLINK-4051,PAYLOAD,2022-12-05 10:16:15,15.08851055,0.0001921,53.2182,127.4212,54.5281,305.589,0.00011361,1.521e-05,0.0,0 STARLINK-4051,1 53273U 22086AH  22339.42796231  .00001521  00000-0  11361-3 0  9995,2 53273  53.2182 127.4212 0001921  54.5281 305.5890 15.08851055 21506,6917.847,95.437,541.0409999999998,538.383,0.0
53273.0,STARLINK-4051,PAYLOAD,2022-12-05 16:37:48,15.08845062,0.0001894,53.2186,126.2315,53.3736,306.743,3.1771e-05,2.18e-06,0.0,0 STARLINK-4051,1 53273U 22086AH  22339.69292444  .00000218  00000-0  31771-4 0  9991,2 53273  53.2186 126.2315 0001894  53.3736 306.7430 15.08845062 21371,6917.865,95.437,541.04,538.42,0.0
53273.0,STARLINK-4051,PAYLOAD,2022-12-06 10:07:02,15.08846307,0.0001905,53.2184,122.9606,53.0475,307.0691,0.00013295,1.829e-05,0.0,0 STARLINK-4051,1 53273U 22086AH  22340.42156182  .00001829  00000-0  13295-3 0  9991,2 53273  53.2184 122.9606 0001905  53.0475 307.0691 15.08846307 21652,6917.861,95.437,541.044,538.408,0.0
53273.0,STARLINK-4051,PAYLOAD,2022-12-06 19:39:22,15.08839494,0.0001853,53.2194,121.1771,50.6807,309.4349,1.699e-05,-1.8e-07,0.0,0 STARLINK-4051,1 53273U 22086AH  22340.81900614 -.00000018  00000-0  16990-4 0  9997,2 53273  53.2194 121.1771 0001853  50.6807 309.4349 15.08839494 21713,6917.882,95.438,541.029,538.465,0.0
53273.0,STARLINK-4051,PAYLOAD,2022-12-06 21:14:45,15.08840355,0.0001845,53.2193,120.8797,49.8549,310.2605,1.874e-05,1e-07,0.0,0 STARLINK-4051,1 53273U 22086AH  22340.88524517  .00000010  00000-0  18740-4 0  9994,2 53273  53.2193 120.8797 0001845  49.8549 310.2605 15.08840355 21555,6917.879,95.438,541.021,538.4680000000002,0.0
53273.0,STARLINK-4051,PAYLOAD,2022-12-07 11:33:13,15.08832857,0.0001754999999999,53.2191,118.2035,47.5393,312.5748,-1.0783e-05,-4.6e-06,0.0,0 STARLINK-4051,1 53273U 22086AH  22341.48141033 -.00000460  00000-0 -10783-4 0  9999,2 53273  53.2191 118.2035 0001755  47.5393 312.5748 15.08832857 21642,6917.901999999999,95.438,540.981,538.553,0.0
53273.0,STARLINK-4051,PAYLOAD,2022-12-07 17:54:46,15.08834982,0.0001798,53.2193,117.0144,48.8231,311.2916,2.696e-05,1.41e-06,0.0,0 STARLINK-4051,1 53273U 22086AH  22341.74636969  .00000141  00000-0  26960-4 0  9993,2 53273  53.2193 117.0144 0001798  48.8231 311.2916 15.08834982 21851,6917.896,95.438,541.005,538.5169999999998,0.0
53273.0,STARLINK-4051,PAYLOAD,2022-12-08 09:48:36,15.08846457,0.0001696999999999,53.2195,114.0406,46.4741,313.6392,9.3139e-05,1.195e-05,0.0,0 STARLINK-4051,1 53273U 22086AH  22342.40875994  .00001195  00000-0  93139-4 0  9992,2 53273  53.2195 114.0406 0001697  46.4741 313.6392 15.08846457 21954,6917.861,95.437,540.9,538.552,0.0
53273.0,STARLINK-4051,PAYLOAD,2022-12-08 16:10:09,15.08838559,0.0001744,53.2193,112.8511,46.4616,313.6521,0.00010011,1.305e-05,0.0,0 STARLINK-4051,1 53273U 22086AH  22342.67372459  .00001305  00000-0  10011-3 0  9999,2 53273  53.2193 112.8511 0001744  46.4616 313.6521 15.08838559 21823,6917.885,95.438,540.956,538.543,0.0
53273.0,STARLINK-4051,PAYLOAD,2022-12-09 01:42:28,15.08846732,0.00016,53.22,111.0696,48.7167,311.3963,0.00013041,1.788e-05,0.0,0 STARLINK-4051,1 53273U 22086AH  22343.07115829  .00001788  00000-0  13041-3 0  9991,2 53273  53.2200 111.0696 0001600  48.7167 311.3963 15.08846732 21887,6917.86,95.437,540.832,538.618,0.0
53273.0,STARLINK-4051,PAYLOAD,2022-12-09 17:36:18,15.08863708,3.950000000000001e-05,53.2201,108.0972,14.2457,345.8546,-8.421600000000001e-05,-1.628e-05,0.0,0 STARLINK-4051,1 53273U 22086AH  22343.73354780 -.00001628  00000-0 -84216-4 0  9993,2 53273  53.2201 108.0972 0000395  14.2457 345.8546 15.08863708 21983,6917.808000000001,95.436,539.946,539.4,0.0
